$$SOE
2460154.500000000, A.D. 2023-Jul-29 00:00:00.0000, 2.779502945833949E+08, -3.066206395800166E+08, 4.754669067944574E+07,
2460161.500000000, A.D. 2023-Aug-05 00:00:00.0000, 2.835625461376911E+08, -3.005741408867754E+08, 4.347688474901177E+07,
2460168.500000000, A.D. 2023-Aug-12 00:00:00.0000, 2.889828554300483E+08, -2.943242022581818E+08, 3.937765577918881E+07,
2460175.500000000, A.D. 2023-Aug-19 00:00:00.0000, 2.942059188668522E+08, -2.878733919613112E+08, 3.525155616765122E+07,
2460182.500000000, A.D. 2023-Aug-26 00:00:00.0000, 2.992263719478507E+08, -2.812243547798373E+08, 3.110118688173826E+07,
2460189.500000000, A.D. 2023-Sep-02 00:00:00.0000, 3.040387849971689E+08, -2.743798186863378E+08, 2.692920139856695E+07,
2460196.500000000, A.D. 2023-Sep-09 00:00:00.0000, 3.086376589803904E+08, -2.673426020892283E+08, 2.273830980531235E+07,
2460203.500000000, A.D. 2023-Sep-16 00:00:00.0000, 3.130174215903277E+08, -2.601156217483080E+08, 1.853128305203192E+07,
2460210.500000000, A.D. 2023-Sep-23 00:00:00.0000, 3.171724240339192E+08, -2.527019011120885E+08, 1.431095735490346E+07,
2460217.500000000, A.D. 2023-Sep-30 00:00:00.0000, 3.210969381991894E+08, -2.451045779305350E+08, 1.008023889102447E+07,
2460224.500000000, A.D. 2023-Oct-07 00:00:00.0000, 3.247851518678945E+08, -2.373269117339576E+08, 5.842108968583867E+06,
2460231.500000000, A.D. 2023-Oct-14 00:00:00.0000, 3.282311630337048E+08, -2.293722945389407E+08, 1.599629318012163E+06,
2460238.500000000, A.D. 2023-Oct-21 00:00:00.0000, 3.314289765797258E+08, -2.212442632267408E+08, -2.644052648839772E+06,
2460245.500000000, A.D. 2023-Oct-28 00:00:00.0000, 3.343725019239072E+08, -2.129465113870165E+08, -6.885698283070505E+06,
2460252.500000000, A.D. 2023-Nov-04 00:00:00.0000, 3.370555504213511E+08, -2.044829014555800E+08, -1.112197178159098E+07,
2460259.500000000, A.D. 2023-Nov-11 00:00:00.0000, 3.394718327462658E+08, -1.958574778086420E+08, -1.534943396051291E+07,
2460266.500000000, A.D. 2023-Nov-18 00:00:00.0000, 3.416149565256251E+08, -1.870744809448293E+08, -1.956453573141482E+07,
2460273.500000000, A.D. 2023-Nov-25 00:00:00.0000, 3.434784243585286E+08, -1.781383628041604E+08, -2.376361127278013E+07,
2460280.500000000, A.D. 2023-Dec-02 00:00:00.0000, 3.450556323201042E+08, -1.690538033120959E+08, -2.794287088840860E+07,
2460287.500000000, A.D. 2023-Dec-09 00:00:00.0000, 3.463398691082621E+08, -1.598257282894891E+08, -3.209839355426968E+07,
2460294.500000000, A.D. 2023-Dec-16 00:00:00.0000, 3.473243162120630E+08, -1.504593288011939E+08, -3.622611917007897E+07,
2460301.500000000, A.D. 2023-Dec-23 00:00:00.0000, 3.480020495568825E+08, -1.409600813438710E+08, -4.032184048407970E+07,
2460308.500000000, A.D. 2023-Dec-30 00:00:00.0000, 3.483660414132682E+08, -1.313337679184606E+08, -4.438119447807702E+07,
2460315.500000000, A.D. 2024-Jan-06 00:00:00.0000, 3.484091609406794E+08, -1.215864984506437E+08, -4.839965324290862E+07,
2460322.500000000, A.D. 2024-Jan-13 00:00:00.0000, 3.481241766969931E+08, -1.117247374696256E+08, -5.237251478682960E+07,
2460329.500000000, A.D. 2024-Jan-20 00:00:00.0000, 3.475037625190544E+08, -1.017553320634329E+08, -5.629489364569545E+07,
2460336.500000000, A.D. 2024-Jan-27 00:00:00.0000, 3.465405049560544E+08, -9.168554056376672E+07, -6.016171107124677E+07,
2460343.500000000, A.D. 2024-Feb-03 00:00:00.0000, 3.452269120669116E+08, -8.152306301504004E+07, -6.396768485988408E+07,
2460350.500000000, A.D. 2024-Feb-10 00:00:00.0000, 3.435554241302691E+08, -7.127607382220025E+07, -6.770731890543759E+07,
2460357.500000000, A.D. 2024-Feb-17 00:00:00.0000, 3.415184267130009E+08, -6.095325666737753E+07, -7.137489253457047E+07,
2460364.500000000, A.D. 2024-Feb-24 00:00:00.0000, 3.391082664807724E+08, -5.056384176960097E+07, -7.496444968846197E+07,
2460371.500000000, A.D. 2024-Mar-02 00:00:00.0000, 3.363172701725398E+08, -4.011764559617560E+07, -7.846978803589003E+07,
2460378.500000000, A.D. 2024-Mar-09 00:00:00.0000, 3.331377673186036E+08, -2.962511314690894E+07, -8.188444813698342E+07,
2460385.500000000, A.D. 2024-Mar-16 00:00:00.0000, 3.295621175881718E+08, -1.909736264622802E+07, -8.520170280362827E+07,
2460392.500000000, A.D. 2024-Mar-23 00:00:00.0000, 3.255827432110329E+08, -8.546231527103625E+06, -8.841454671165395E+07,
2460399.500000000, A.D. 2024-Mar-30 00:00:00.0000, 3.211921648523681E+08, 2.015676318805646E+06, -9.151568625643207E+07,
2460406.500000000, A.D. 2024-Apr-06 00:00:00.0000, 3.163830418835312E+08, 1.257493875858631E+07, -9.449753019048578E+07,
2460413.500000000, A.D. 2024-Apr-13 00:00:00.0000, 3.111482213445637E+08, 2.311726011277627E+07, -9.735218158640832E+07,
2460420.500000000, A.D. 2024-Apr-20 00:00:00.0000, 3.054807954585688E+08, 3.362741527021954E+07, -1.000714311604571E+08,
2460427.500000000, A.D. 2024-Apr-27 00:00:00.0000, 2.993741670607344E+08, 4.408919303786980E+07, -1.026467522687836E+08,
2460434.500000000, A.D. 2024-May-04 00:00:00.0000, 2.928221239685388E+08, 5.448533853707325E+07, -1.050692981167917E+08,
2460441.500000000, A.D. 2024-May-11 00:00:00.0000, 2.858189235237113E+08, 6.479749523397204E+07, -1.073299017678188E+08,
2460448.500000000, A.D. 2024-May-18 00:00:00.0000, 2.783593884270334E+08, 7.500614752352545E+07, -1.094190796104581E+08,
2460455.500000000, A.D. 2024-May-25 00:00:00.0000, 2.704390149579595E+08, 8.509056499700800E+07, -1.113270390525035E+08,
2460462.500000000, A.D. 2024-Jun-01 00:00:00.0000, 2.620540946994098E+08, 9.502874974647897E+07, -1.130436913346634E+08,
2460469.500000000, A.D. 2024-Jun-08 00:00:00.0000, 2.532018510202844E+08, 1.047973884112842E+08, -1.145586704904469E+08,
2460476.500000000, A.D. 2024-Jun-15 00:00:00.0000, 2.438805916052870E+08, 1.143718116034339E+08, -1.158613595616328E+08,
2460483.500000000, A.D. 2024-Jun-22 00:00:00.0000, 2.340898767234174E+08, 1.237259643993937E+08, -1.169409251074184E+08,
2460490.500000000, A.D. 2024-Jun-29 00:00:00.0000, 2.238307015435098E+08, 1.328323890641480E+08, -1.177863613057437E+08,
2460497.500000000, A.D. 2024-Jul-06 00:00:00.0000, 2.131056951969350E+08, 1.416622210056433E+08, -1.183865455378574E+08,
2460504.500000000, A.D. 2024-Jul-13 00:00:00.0000, 2.019193380546475E+08, 1.501852047522572E+08, -1.187303068997332E+08,
2460511.500000000, A.D. 2024-Jul-20 00:00:00.0000, 1.902781940599998E+08, 1.583697355812063E+08, -1.188065088698985E+08,
2460518.500000000, A.D. 2024-Jul-27 00:00:00.0000, 1.781911554230447E+08, 1.661829307837831E+08, -1.186041476065106E+08,
2460525.500000000, A.D. 2024-Aug-03 00:00:00.0000, 1.656696968418947E+08, 1.735907355144233E+08, -1.181124672378623E+08,
2460532.500000000, A.D. 2024-Aug-10 00:00:00.0000, 1.527281350307107E+08, 1.805580687727367E+08, -1.173210932043286E+08,
2460539.500000000, A.D. 2024-Aug-17 00:00:00.0000, 1.393838877360882E+08, 1.870490151065677E+08, -1.162201842838396E+08,
2460546.500000000, A.D. 2024-Aug-24 00:00:00.0000, 1.256577247537306E+08, 1.930270672869387E+08, -1.148006033478049E+08,
2460553.500000000, A.D. 2024-Aug-31 00:00:00.0000, 1.115740017823155E+08, 1.984554244718288E+08, -1.130541061222422E+08,
2460560.500000000, A.D. 2024-Sep-07 00:00:00.0000, 9.716086642267400E+07, 2.032973493709033E+08, -1.109735462455762E+08,
2460567.500000000, A.D. 2024-Sep-14 00:00:00.0000, 8.245042369904277E+07, 2.075165870094954E+08, -1.085530936222050E+08,
2460574.500000000, A.D. 2024-Sep-21 00:00:00.0000, 6.747884501551580E+07, 2.110778446579596E+08, -1.057884615286077E+08,
2460581.500000000, A.D. 2024-Sep-28 00:00:00.0000, 5.228640515039242E+07, 2.139473257574366E+08, -1.026771368464736E+08,
2460588.500000000, A.D. 2024-Oct-05 00:00:00.0000, 3.691743600443736E+07, 2.160933102144917E+08, -9.921860641058625E+07,
2460595.500000000, A.D. 2024-Oct-12 00:00:00.0000, 2.142018278896500E+07, 2.174867722075983E+08, -9.541457039644390E+07,
2460602.500000000, A.D. 2024-Oct-19 00:00:00.0000, 5.846549159979207E+06, 2.181020189733224E+08, -9.126913260469507E+07,
2460609.500000000, A.D. 2024-Oct-26 00:00:00.0000, -9.748276868417932E+06, 2.179173292323290E+08, -8.678895696590431E+07,
2460616.500000000, A.D. 2024-Nov-02 00:00:00.0000, -2.530631908741749E+07, 2.169155668663487E+08, -8.198337946221372E+07,
2460623.500000000, A.D. 2024-Nov-09 00:00:00.0000, -4.076742808261269E+07, 2.150847430078742E+08, -7.686446532877304E+07,
2460630.500000000, A.D. 2024-Nov-16 00:00:00.0000, -5.607000470854965E+07, 2.124184986500584E+08, -7.144700299050213E+07,
2460637.500000000, A.D. 2024-Nov-23 00:00:00.0000, -7.115181418671633E+07, 2.089164807960024E+08, -6.574842870954347E+07,
2460644.500000000, A.D. 2024-Nov-30 00:00:00.0000, -8.595086567012975E+07, 2.045845883679899E+08, -5.978867926025330E+07,
2460651.500000000, A.D. 2024-Dec-07 00:00:00.0000, -1.004063259253735E+08, 1.994350699755844E+08, -5.358997384563473E+07,
2460658.500000000, A.D. 2024-Dec-14 00:00:00.0000, -1.144594328124921E+08, 1.934864637861504E+08, -4.717653047568732E+07,
2460665.500000000, A.D. 2024-Dec-21 00:00:00.0000, -1.280543742655701E+08, 1.867633759682924E+08, -4.057422610534663E+07,
2460672.500000000, A.D. 2024-Dec-28 00:00:00.0000, -1.411390953419024E+08, 1.792961016369252E+08, -3.381021378812768E+07,
2460679.500000000, A.D. 2025-Jan-04 00:00:00.0000, -1.536659992691310E+08, 1.711201063563475E+08, -2.691251222367278E+07,
2460686.500000000, A.D. 2025-Jan-11 00:00:00.0000, -1.655925192134029E+08, 1.622753931574431E+08, -1.990958408648106E+07,
2460693.500000000, A.D. 2025-Jan-18 00:00:00.0000, -1.768815446039780E+08, 1.528057830355759E+08, -1.282991982208673E+07,
2460700.500000000, A.D. 2025-Jan-25 00:00:00.0000, -1.875016935940053E+08, 1.427581404600572E+08, -5.701642425918564E+06,
2460707.500000000, A.D. 2025-Feb-01 00:00:00.0000, -1.974274321519181E+08, 1.321815764615186E+08, 1.447853585695311E+06,
2460714.500000000, A.D. 2025-Feb-08 00:00:00.0000, -2.066390483764626E+08, 1.211266601386907E+08, 8.592218818549439E+06,
2460721.500000000, A.D. 2025-Feb-15 00:00:00.0000, -2.151224971050917E+08, 1.096446656679238E+08, 1.570641443259557E+07,
$$EOE